{
  "type": "FeatureCollection",
  "features": [
    {
      "type": "Feature",
      "properties": {
        "norad_id": 29268,
        "name": "ARIRANG-2 (KOMPSAT-2)",
        "group": "resource",
        "lat": -74.22970023629755,
        "lon": -152.898319670255,
        "alt_km": 676.9119799530436,
        "timestamp": "2025-12-15T14:57:57.496704+00:00",
        "meta_object_name": "ARIRANG-2 (KOMPSAT-2)",
        "meta_object_id": "2006-031A",
        "meta_epoch": "2025-12-14T23:37:26.627808",
        "meta_mean_motion": 14.64496672,
        "meta_eccentricity": 0.00133943,
        "meta_inclination": 97.8265,
        "meta_ra_of_asc_node": 177.3477,
        "meta_arg_of_pericenter": 301.588,
        "meta_mean_anomaly": 214.0173,
        "meta_ephemeris_type": 0,
        "meta_classification_type": "U",
        "meta_norad_cat_id": 29268,
        "meta_element_set_no": 999,
        "meta_rev_at_epoch": 3451,
        "meta_bstar": 0.00011039716,
        "meta_mean_motion_dot": 5.4e-06,
        "meta_mean_motion_ddot": 0,
        "tle_line1": "1 29268U 06031A   25348.98433597  .00000540  00000+0  11040-3 0  9994",
        "tle_line2": "2 29268  97.8265 177.3477 0013394 301.5880 214.0173 14.64496672 34517"
      },
      "geometry": {
        "type": "Point",
        "coordinates": [
          -152.898319670255,
          -74.22970023629755
        ]
      }
    },
    {
      "type": "Feature",
      "properties": {
        "norad_id": 29709,
        "name": "LAPAN-TUBSAT",
        "group": "resource",
        "lat": 75.55938035392978,
        "lon": -53.86048483188625,
        "alt_km": 595.0286045240509,
        "timestamp": "2025-12-15T14:57:57.496715+00:00",
        "meta_object_name": "LAPAN-TUBSAT",
        "meta_object_id": "2007-001A",
        "meta_epoch": "2025-12-14T22:27:10.046016",
        "meta_mean_motion": 14.85676314,
        "meta_eccentricity": 0.00135616,
        "meta_inclination": 98.1259,
        "meta_ra_of_asc_node": 339.1372,
        "meta_arg_of_pericenter": 67.7807,
        "meta_mean_anomaly": 292.4845,
        "meta_ephemeris_type": 0,
        "meta_classification_type": "U",
        "meta_norad_cat_id": 29709,
        "meta_element_set_no": 999,
        "meta_rev_at_epoch": 2379,
        "meta_bstar": 0.00016398051,
        "meta_mean_motion_dot": 1.366e-05,
        "meta_mean_motion_ddot": 0,
        "tle_line1": "1 29709U 07001A   25348.93553294  .00001366  00000+0  16398-3 0  9992",
        "tle_line2": "2 29709  98.1259 339.1372 0013561  67.7807 292.4845 14.85676314 23792"
      },
      "geometry": {
        "type": "Point",
        "coordinates": [
          -53.86048483188625,
          75.55938035392978
        ]
      }
    },
    {
      "type": "Feature",
      "properties": {
        "norad_id": 31113,
        "name": "HAIYANG-1B",
        "group": "resource",
        "lat": 62.49472829206185,
        "lon": 170.12882447035403,
        "alt_km": 781.7679838565773,
        "timestamp": "2025-12-15T14:57:57.496724+00:00",
        "meta_object_name": "HAIYANG-1B",
        "meta_object_id": "2007-010A",
        "meta_epoch": "2025-12-14T21:38:39.078816",
        "meta_mean_motion": 14.30965742,
        "meta_eccentricity": 0.00141677,
        "meta_inclination": 98.3316,
        "meta_ra_of_asc_node": 333.0907,
        "meta_arg_of_pericenter": 31.8611,
        "meta_mean_anomaly": 328.3427,
        "meta_ephemeris_type": 0,
        "meta_classification_type": "U",
        "meta_norad_cat_id": 31113,
        "meta_element_set_no": 999,
        "meta_rev_at_epoch": 97427,
        "meta_bstar": 6.8708988e-05,
        "meta_mean_motion_dot": 1.39e-06,
        "meta_mean_motion_ddot": 0,
        "tle_line1": "1 31113U 07010A   25348.90184119  .00000139  00000+0  68709-4 0  9998",
        "tle_line2": "2 31113  98.3316 333.0907 0014167  31.8611 328.3427 14.30965742974274"
      },
      "geometry": {
        "type": "Point",
        "coordinates": [
          170.12882447035403,
          62.49472829206185
        ]
      }
    },
    {
      "type": "Feature",
      "properties": {
        "norad_id": 31598,
        "name": "COSMO-SKYMED 1",
        "group": "resource",
        "lat": 40.6770085728585,
        "lon": 1.8802369546704774,
        "alt_km": 576.1405803073376,
        "timestamp": "2025-12-15T14:57:57.496734+00:00",
        "meta_object_name": "COSMO-SKYMED 1",
        "meta_object_id": "2007-023A",
        "meta_epoch": "2025-12-14T22:17:34.012032",
        "meta_mean_motion": 14.95782605,
        "meta_eccentricity": 0.00014077,
        "meta_inclination": 97.8833,
        "meta_ra_of_asc_node": 174.3421,
        "meta_arg_of_pericenter": 89.9184,
        "meta_mean_anomaly": 270.2198,
        "meta_ephemeris_type": 0,
        "meta_classification_type": "U",
        "meta_norad_cat_id": 31598,
        "meta_element_set_no": 999,
        "meta_rev_at_epoch": 223,
        "meta_bstar": 0.00030711903,
        "meta_mean_motion_dot": 3.367e-05,
        "meta_mean_motion_ddot": 0,
        "tle_line1": "1 31598U 07023A   25348.92886588  .00003367  00000+0  30712-3 0  9998",
        "tle_line2": "2 31598  97.8833 174.3421 0001407  89.9184 270.2198 14.95782605  2232"
      },
      "geometry": {
        "type": "Point",
        "coordinates": [
          1.8802369546704774,
          40.6770085728585
        ]
      }
    },
    {
      "type": "Feature",
      "properties": {
        "norad_id": 31698,
        "name": "TERRASAR-X",
        "group": "resource",
        "lat": 36.39388200593099,
        "lon": -10.57003395580001,
        "alt_km": 505.09068996350015,
        "timestamp": "2025-12-15T14:57:57.496745+00:00",
        "meta_object_name": "TERRASAR-X",
        "meta_object_id": "2007-026A",
        "meta_epoch": "2025-12-14T13:30:41.171328",
        "meta_mean_motion": 15.19155649,
        "meta_eccentricity": 0.00017638,
        "meta_inclination": 97.4455,
        "meta_ra_of_asc_node": 353.9163,
        "meta_arg_of_pericenter": 88.5076,
        "meta_mean_anomaly": 271.6361,
        "meta_ephemeris_type": 0,
        "meta_classification_type": "U",
        "meta_norad_cat_id": 31698,
        "meta_element_set_no": 999,
        "meta_rev_at_epoch": 2519,
        "meta_bstar": 9.163965e-05,
        "meta_mean_motion_dot": 1.858e-05,
        "meta_mean_motion_ddot": 0,
        "tle_line1": "1 31698U 07026A   25348.56297652  .00001858  00000+0  91640-4 0  9991",
        "tle_line2": "2 31698  97.4455 353.9163 0001763  88.5076 271.6361 15.19155649 25193"
      },
      "geometry": {
        "type": "Point",
        "coordinates": [
          -10.57003395580001,
          36.39388200593099
        ]
      }
    },
    {
      "type": "Feature",
      "properties": {
        "norad_id": 32060,
        "name": "WORLDVIEW-1 (WV-1)",
        "group": "resource",
        "lat": 80.58979459452298,
        "lon": -21.4550474140979,
        "alt_km": 483.6208398654762,
        "timestamp": "2025-12-15T14:57:57.496755+00:00",
        "meta_object_name": "WORLDVIEW-1 (WV-1)",
        "meta_object_id": "2007-041A",
        "meta_epoch": "2025-12-14T21:13:17.942880",
        "meta_mean_motion": 15.24730196,
        "meta_eccentricity": 8.212e-05,
        "meta_inclination": 97.3832,
        "meta_ra_of_asc_node": 106.3346,
        "meta_arg_of_pericenter": 112.8228,
        "meta_mean_anomaly": 247.3096,
        "meta_ephemeris_type": 0,
        "meta_classification_type": "U",
        "meta_norad_cat_id": 32060,
        "meta_element_set_no": 999,
        "meta_rev_at_epoch": 1480,
        "meta_bstar": 0.00026157834,
        "meta_mean_motion_dot": 6.404e-05,
        "meta_mean_motion_ddot": 0,
        "tle_line1": "1 32060U 07041A   25348.88423545  .00006404  00000+0  26158-3 0  9992",
        "tle_line2": "2 32060  97.3832 106.3346 0000821 112.8228 247.3096 15.24730196 14805"
      },
      "geometry": {
        "type": "Point",
        "coordinates": [
          -21.4550474140979,
          80.58979459452298
        ]
      }
    },
    {
      "type": "Feature",
      "properties": {
        "norad_id": 32289,
        "name": "YAOGAN-3",
        "group": "resource",
        "lat": -71.4936383928804,
        "lon": 40.52194862566484,
        "alt_km": 606.4431906071459,
        "timestamp": "2025-12-15T14:57:57.496765+00:00",
        "meta_object_name": "YAOGAN-3",
        "meta_object_id": "2007-055A",
        "meta_epoch": "2025-12-14T23:10:31.417824",
        "meta_mean_motion": 14.89872569,
        "meta_eccentricity": 0.00013707,
        "meta_inclination": 97.8371,
        "meta_ra_of_asc_node": 15.5709,
        "meta_arg_of_pericenter": 78.2213,
        "meta_mean_anomaly": 281.9158,
        "meta_ephemeris_type": 0,
        "meta_classification_type": "U",
        "meta_norad_cat_id": 32289,
        "meta_element_set_no": 999,
        "meta_rev_at_epoch": 97842,
        "meta_bstar": 0.00031042983,
        "meta_mean_motion_dot": 2.929e-05,
        "meta_mean_motion_ddot": 0,
        "tle_line1": "1 32289U 07055A   25348.96564141  .00002929  00000+0  31043-3 0  9994",
        "tle_line2": "2 32289  97.8371  15.5709 0001370  78.2213 281.9158 14.89872569978425"
      },
      "geometry": {
        "type": "Point",
        "coordinates": [
          40.52194862566484,
          -71.4936383928804
        ]
      }
    }
  ]
}